{"type": "FeatureCollection", "features": [ {"type": "Feature", "properties": {"norad_id": 30096, "name": "FENGYUN 1C DEB", "group": "fengyun-1c-debris", "lat": -1.7843075737114382, "lon": -118.8950942415171, "alt_km": 763.6438545849887, "timestamp": "2025-12-08T08:59:01.039550+00:00", "meta": {"OBJECT_NAME": "FENGYUN 1C DEB", "OBJECT_ID": "1999-025QZ", "EPOCH": "2025-12-07T17:02:03.595776", "MEAN_MOTION": 14.31677521, "ECCENTRICITY": 0.00789704, "INCLINATION": 99.1482, "RA_OF_ASC_NODE": 60.6926, "ARG_OF_PERICENTER": 247.0916, "MEAN_ANOMALY": 112.1916, "EPHEMERIS_TYPE": 0, "CLASSIFICATION_TYPE": "U", "NORAD_CAT_ID": 30096, "ELEMENT_SET_NO": 999, "REV_AT_EPOCH": 98474, "BSTAR": 0.00058628846, "MEAN_MOTION_DOT": 1.569e-05, "MEAN_MOTION_DDOT": 0}, "tle": {"line1": "1 30096U 99025QZ  25341.70976384  .00001569  00000+0  58629-3 0  9995", "line2": "2 30096  99.1482  60.6926 0078970 247.0916 112.1916 14.31677521984742"}}, "geometry": {"type": "Point", "coordinates": [-118.8950942415171, -1.7843075737114382]}}, {"type": "Feature", "properties": {"norad_id": 30099, "name": "FENGYUN 1C DEB", "group": "fengyun-1c-debris", "lat": 25.49050544709569, "lon": -121.10058940819891, "alt_km": 814.5505099932852, "timestamp": "2025-12-08T08:59:01.039560+00:00", "meta": {"OBJECT_NAME": "FENGYUN 1C DEB", "OBJECT_ID": "1999-025RC", "EPOCH": "2025-12-07T22:58:53.801760", "MEAN_MOTION": 14.25925644, "ECCENTRICITY": 0.00609603, "INCLINATION": 98.5411, "RA_OF_ASC_NODE": 54.3845, "ARG_OF_PERICENTER": 258.8963, "MEAN_ANOMALY": 277.7833, "EPHEMERIS_TYPE": 0, "CLASSIFICATION_TYPE": "U", "NORAD_CAT_ID": 30099, "ELEMENT_SET_NO": 999, "REV_AT_EPOCH": 98121, "BSTAR": 0.00047376416, "MEAN_MOTION_DOT": 1.108e-05, "MEAN_MOTION_DDOT": 0}, "tle": {"line1": "1 30099U 99025RC  25341.95756715  .00001108  00000+0  47376-3 0  9995", "line2": "2 30099  98.5411  54.3845 0060960 258.8963 277.7833 14.25925644981212"}}, "geometry": {"type": "Point", "coordinates": [-121.10058940819891, 25.49050544709569]}}, {"type": "Feature", "properties": {"norad_id": 30102, "name": "FENGYUN 1C DEB", "group": "fengyun-1c-debris", "lat": 37.50309723994935, "lon": -16.128115596618564, "alt_km": 722.624807040098, "timestamp": "2025-12-08T08:59:01.039571+00:00", "meta": {"OBJECT_NAME": "FENGYUN 1C DEB", "OBJECT_ID": "1999-025RF", "EPOCH": "2025-12-07T23:00:05.574240", "MEAN_MOTION": 14.22117684, "ECCENTRICITY": 0.01420044, "INCLINATION": 98.3791, "RA_OF_ASC_NODE": 349.971, "ARG_OF_PERICENTER": 14.1758, "MEAN_ANOMALY": 55.0687, "EPHEMERIS_TYPE": 0, "CLASSIFICATION_TYPE": "U", "NORAD_CAT_ID": 30102, "ELEMENT_SET_NO": 999, "REV_AT_EPOCH": 97890, "BSTAR": 0.00053379633, "MEAN_MOTION_DOT": 1.269e-05, "MEAN_MOTION_DDOT": 0}, "tle": {"line1": "1 30102U 99025RF  25341.95839785  .00001269  00000+0  53380-3 0  9999", "line2": "2 30102  98.3791 349.9710 0142004  14.1758  55.0687 14.22117684978905"}}, "geometry": {"type": "Point", "coordinates": [-16.128115596618564, 37.50309723994935]}}, {"type": "Feature", "properties": {"norad_id": 30103, "name": "FENGYUN 1C DEB", "group": "fengyun-1c-debris", "lat": -6.105246198957212, "lon": -35.37649050612195, "alt_km": 846.8715305382475, "timestamp": "2025-12-08T08:59:01.039581+00:00", "meta": {"OBJECT_NAME": "FENGYUN 1C DEB", "OBJECT_ID": "1999-025RG", "EPOCH": "2025-12-07T21:29:09.248352", "MEAN_MOTION": 14.24841958, "ECCENTRICITY": 0.00639824, "INCLINATION": 99.2444, "RA_OF_ASC_NODE": 323.1212, "ARG_OF_PERICENTER": 133.5589, "MEAN_ANOMALY": 284.8652, "EPHEMERIS_TYPE": 0, "CLASSIFICATION_TYPE": "U", "NORAD_CAT_ID": 30103, "ELEMENT_SET_NO": 999, "REV_AT_EPOCH": 97850, "BSTAR": 0.00064901634, "MEAN_MOTION_DOT": 1.499e-05, "MEAN_MOTION_DDOT": 0}, "tle": {"line1": "1 30103U 99025RG  25341.89524593  .00001499  00000+0  64902-3 0  9998", "line2": "2 30103  99.2444 323.1212 0063982 133.5589 284.8652 14.24841958978507"}}, "geometry": {"type": "Point", "coordinates": [-35.37649050612195, -6.105246198957212]}}, {"type": "Feature", "properties": {"norad_id": 30104, "name": "FENGYUN 1C DEB", "group": "fengyun-1c-debris", "lat": -9.750056732845692, "lon": -1.8070646337427831, "alt_km": 790.9075052022527, "timestamp": "2025-12-08T08:59:01.039591+00:00", "meta": {"OBJECT_NAME": "FENGYUN 1C DEB", "OBJECT_ID": "1999-025RH", "EPOCH": "2025-12-07T12:01:52.663872", "MEAN_MOTION": 14.25641459, "ECCENTRICITY": 0.0073869, "INCLINATION": 98.3595, "RA_OF_ASC_NODE": 178.8082, "ARG_OF_PERICENTER": 123.4889, "MEAN_ANOMALY": 267.4412, "EPHEMERIS_TYPE": 0, "CLASSIFICATION_TYPE": "U", "NORAD_CAT_ID": 30104, "ELEMENT_SET_NO": 999, "REV_AT_EPOCH": 97818, "BSTAR": 0.0011640378, "MEAN_MOTION_DOT": 2.799e-05, "MEAN_MOTION_DDOT": 0}, "tle": {"line1": "1 30104U 99025RH  25341.50130398  .00002799  00000+0  11640-2 0  9997", "line2": "2 30104  98.3595 178.8082 0073869 123.4889 267.4412 14.25641459978181"}}, "geometry": {"type": "Point", "coordinates": [-1.8070646337427831, -9.750056732845692]}}, {"type": "Feature", "properties": {"norad_id": 30105, "name": "FENGYUN 1C DEB", "group": "fengyun-1c-debris", "lat": 2.16524153860148, "lon": -31.79478840050453, "alt_km": 806.0346386050178, "timestamp": "2025-12-08T08:59:01.039602+00:00", "meta": {"OBJECT_NAME": "FENGYUN 1C DEB", "OBJECT_ID": "1999-025RJ", "EPOCH": "2025-12-07T22:50:12.128064", "MEAN_MOTION": 14.21385459, "ECCENTRICITY": 0.01998086, "INCLINATION": 98.5933, "RA_OF_ASC_NODE": 328.121, "ARG_OF_PERICENTER": 87.7767, "MEAN_ANOMALY": 274.6274, "EPHEMERIS_TYPE": 0, "CLASSIFICATION_TYPE": "U", "NORAD_CAT_ID": 30105, "ELEMENT_SET_NO": 999, "REV_AT_EPOCH": 97694, "BSTAR": 0.00044904907, "MEAN_MOTION_DOT": 1.157e-05, "MEAN_MOTION_DDOT": 0}, "tle": {"line1": "1 30105U 99025RJ  25341.95152926  .00001157  00000+0  44905-3 0  9996", "line2": "2 30105  98.5933 328.1210 0199808  87.7767 274.6274 14.21385459976941"}}, "geometry": {"type": "Point", "coordinates": [-31.79478840050453, 2.16524153860148]}}, {"type": "Feature", "properties": {"norad_id": 30106, "name": "FENGYUN 1C DEB", "group": "fengyun-1c-debris", "lat": 68.91485472262542, "lon": -134.852173355923, "alt_km": 634.1076589328859, "timestamp": "2025-12-08T08:59:01.039612+00:00", "meta": {"OBJECT_NAME": "FENGYUN 1C DEB", "OBJECT_ID": "1999-025RK", "EPOCH": "2025-12-07T16:45:25.604928", "MEAN_MOTION": 14.84564578, "ECCENTRICITY": 0.00474745, "INCLINATION": 98.9239, "RA_OF_ASC_NODE": 248.4412, "ARG_OF_PERICENTER": 215.1769, "MEAN_ANOMALY": 204.6586, "EPHEMERIS_TYPE": 0, "CLASSIFICATION_TYPE": "U", "NORAD_CAT_ID": 30106, "ELEMENT_SET_NO": 999, "REV_AT_EPOCH": 98470, "BSTAR": 0.007521185, "MEAN_MOTION_DOT": 0.00065272, "MEAN_MOTION_DDOT": 0}, "tle": {"line1": "1 30106U 99025RK  25341.69821302  .00065272  00000+0  75212-2 0  9991", "line2": "2 30106  98.9239 248.4412 0047474 215.1769 204.6586 14.84564578984705"}}, "geometry": {"type": "Point", "coordinates": [-134.852173355923, 68.91485472262542]}}, {"type": "Feature", "properties": {"norad_id": 30107, "name": "FENGYUN 1C DEB", "group": "fengyun-1c-debris", "lat": 23.559675359635683, "lon": 35.43915615817089, "alt_km": 851.7942274427633, "timestamp": "2025-12-08T08:59:01.039623+00:00", "meta": {"OBJECT_NAME": "FENGYUN 1C DEB", "OBJECT_ID": "1999-025RL", "EPOCH": "2025-12-07T20:59:14.030016", "MEAN_MOTION": 14.14417841, "ECCENTRICITY": 0.01262495, "INCLINATION": 98.8476, "RA_OF_ASC_NODE": 38.8384, "ARG_OF_PERICENTER": 289.5841, "MEAN_ANOMALY": 69.1738, "EPHEMERIS_TYPE": 0, "CLASSIFICATION_TYPE": "U", "NORAD_CAT_ID": 30107, "ELEMENT_SET_NO": 999, "REV_AT_EPOCH": 97492, "BSTAR": 0.00016337934, "MEAN_MOTION_DOT": 2.92e-06, "MEAN_MOTION_DDOT": 0}, "tle": {"line1": "1 30107U 99025RL  25341.87446794  .00000292  00000+0  16338-3 0  9996", "line2": "2 30107  98.8476  38.8384 0126249 289.5841  69.1738 14.14417841974920"}}, "geometry": {"type": "Point", "coordinates": [35.43915615817089, 23.559675359635683]}}, {"type": "Feature", "properties": {"norad_id": 30108, "name": "FENGYUN 1C DEB", "group": "fengyun-1c-debris", "lat": -60.70468719250546, "lon": 132.5768585022052, "alt_km": 968.4929516274633, "timestamp": "2025-12-08T08:59:01.039633+00:00", "meta": {"OBJECT_NAME": "FENGYUN 1C DEB", "OBJECT_ID": "1999-025RM", "EPOCH": "2025-12-07T21:56:20.190912", "MEAN_MOTION": 14.17157725, "ECCENTRICITY": 0.01978463, "INCLINATION": 98.6598, "RA_OF_ASC_NODE": 327.8894, "ARG_OF_PERICENTER": 36.0037, "MEAN_ANOMALY": 20.4051, "EPHEMERIS_TYPE": 0, "CLASSIFICATION_TYPE": "U", "NORAD_CAT_ID": 30108, "ELEMENT_SET_NO": 999, "REV_AT_EPOCH": 97530, "BSTAR": 0.00053741703, "MEAN_MOTION_DOT": 1.269e-05, "MEAN_MOTION_DDOT": 0}, "tle": {"line1": "1 30108U 99025RM  25341.91412258  .00001269  00000+0  53742-3 0  9995", "line2": "2 30108  98.6598 327.8894 0197846  36.0037  20.4051 14.17157725975300"}}, "geometry": {"type": "Point", "coordinates": [132.5768585022052, -60.70468719250546]}}, {"type": "Feature", "properties": {"norad_id": 30109, "name": "FENGYUN 1C DEB", "group": "fengyun-1c-debris", "lat": -10.212206087309479, "lon": -22.386559402711953, "alt_km": 866.5407034446034, "timestamp": "2025-12-08T08:59:01.039643+00:00", "meta": {"OBJECT_NAME": "FENGYUN 1C DEB", "OBJECT_ID": "1999-025RN", "EPOCH": "2025-12-07T23:08:03.816384", "MEAN_MOTION": 14.17536042, "ECCENTRICITY": 0.01671944, "INCLINATION": 98.5077, "RA_OF_ASC_NODE": 335.6751, "ARG_OF_PERICENTER": 246.2796, "MEAN_ANOMALY": 168.5902, "EPHEMERIS_TYPE": 0, "CLASSIFICATION_TYPE": "U", "NORAD_CAT_ID": 30109, "ELEMENT_SET_NO": 999, "REV_AT_EPOCH": 97484, "BSTAR": 0.00060224618, "MEAN_MOTION_DOT": 1.36e-05, "MEAN_MOTION_DDOT": 0}, "tle": {"line1": "1 30109U 99025RN  25341.96393306  .00001360  00000+0  60225-3 0  9999", "line2": "2 30109  98.5077 335.6751 0167194 246.2796 168.5902 14.17536042974841"}}, "geometry": {"type": "Point", "coordinates": [-22.386559402711953, -10.212206087309479]}}]}